STARLINK-30224          
1 57416U 23102N   26160.51954117  .00001838  00000+0  76371-4 0  9996
2 57416  43.0455  90.0070 0003942 269.9082  90.1319 15.27577658160289
STARLINK-30043          
1 57417U 23102P   26160.52084186  .00000029  00000+0  10585-4 0  9994
2 57417  43.0062  90.0173 0000464 308.1336  51.9474 15.27575139160281
STARLINK-30221          
1 57418U 23102Q   26160.55069089  .00000620  00000+0  32031-4 0  9990
2 57418  43.0034  97.0714 0000648 244.3653 115.7132 15.27577959160200
STARLINK-30188          
1 57432U 23105C   26160.12803715  .00001572  00000+0  66633-4 0  9996
2 57432  43.0003 107.0859 0001686 272.9238  87.1421 15.27580211159490
STARLINK-30105          
1 57433U 23105D   26160.48014242  .00000277  00000+0  19607-4 0  9995
2 57433  43.0041 232.4523 0001543 283.1417  76.9262 15.27575799162363
STARLINK-30102          
1 57434U 23105E   26160.11567640  .00000434  00000+0  25322-4 0  9997
2 57434  43.0080 103.5808 0002057 280.6137  79.4483 15.27574666159511
STARLINK-30158          
1 57438U 23105J   26160.11824304  .00000809  00000+0  38934-4 0  9993
2 57438  43.0021 103.5966 0001386 256.0579 104.0119 15.27581170159560
STARLINK-30160          
1 57441U 23105M   26158.60566699 -.00001456  00000+0 -43412-4 0  9996
2 57441  43.0029 118.8370 0000633 246.5113 113.5672 15.27566289159093
STARLINK-30146          
1 57442U 23105N   26160.12210284  .00000163  00000+0  15470-4 0  9998
2 57442  43.0067 103.6256 0001492 270.7122  89.3559 15.27576451159629
STARLINK-30197          
1 57443U 23105P   26159.57849730 -.00000548  00000+0 -10339-4 0  9998
2 57443  42.9849 106.4226 0004725  99.1707 260.9679 15.27554334159488
STARLINK-30181          
1 57444U 23105Q   26158.60231002  .00000149  00000+0  14941-4 0  9997
2 57444  43.0027 115.4005 0000788 204.8042 155.2772 15.27569471159350
STARLINK-30215          
1 57445U 23105R   26160.52213021  .00000558  00000+0  29787-4 0  9991
2 57445  43.0035 101.4642 0001153 272.6882  87.3837 15.27577143159468
STARLINK-30162          
1 57446U 23105S   26160.50291260  .00000009  00000+0  98539-5 0  9994
2 57446  43.0053  90.2842 0001095 276.3057  83.7670 15.27576126159753
STARLINK-30178          
1 57447U 23105T   26160.12595399  .00001479  00000+0  63269-4 0  9996
2 57447  43.0046 103.6522 0001120 271.3071  88.7652 15.27581049159564
STARLINK-30196          
1 57448U 23105U   26160.55617386  .00000065  00000+0  11933-4 0  9996
2 57448  43.0404 104.2607 0002397 261.7232  98.3349 15.27583954159436
STARLINK-30225          
1 57449U 23105V   26159.57923546 -.00000349  00000+0 -31377-5 0  9997
2 57449  43.0052 109.8297 0001964 267.4455  92.6172 15.27579582159502
STARLINK-30217          
1 57450U 23105W   26160.50549396  .00000369  00000+0  22912-4 0  9995
2 57450  43.0021  90.3487 0000650 271.9640  88.1138 15.27576192159755
STARLINK-30216          
1 57451U 23105X   26160.14380043  .00000913  00000+0  42705-4 0  9995
2 57451  43.0016 102.9382 0000748 269.0234  91.0532 15.27579399159415
STARLINK-30165          
1 57457U 23107A   26160.35361048  .00000949  00000+0  44005-4 0  9994
2 57457  43.0034 178.6371 0001625 264.2277  95.8390 15.27571948159155
STARLINK-30140          
1 57458U 23107B   26160.39537122  .00002464  00000+0  99024-4 0  9992
2 57458  43.0021 181.4908 0002745 269.6981  90.3556 15.27588003159137
STARLINK-30077          
1 57460U 23107D   26159.78811135  .00000245  00000+0  18435-4 0  9997
2 57460  43.0039 181.2748 0001494 277.8297  82.2385 15.27577757159088
STARLINK-30229          
1 57461U 23107E   26159.79498350  .00000652  00000+0  33227-4 0  9997
2 57461  43.0022 188.9972 0001199 273.0463  87.0251 15.27575330158998
STARLINK-30088          
1 57462U 23107F   26160.35875386  .00001714  00000+0  71782-4 0  9998
2 57462  43.0030 178.6691 0001258 283.0955  76.9756 15.27585255159169
STARLINK-30091          
1 57463U 23107G   26160.58337963  .01674720  00000+0  70673-2 0  9998
2 57463  42.9994 171.0227 0001914 279.9073 347.3010 15.81976866  5916
STARLINK-30116          
1 57465U 23107J   26160.34846682  .00000231  00000+0  17910-4 0  9993
2 57465  42.9985 178.5846 0001559 293.4669  66.6019 15.27575854159163
STARLINK-30092          
1 57467U 23107L   26160.35233647  .00001100  00000+0  49498-4 0  9999
2 57467  43.0045 178.6262 0001676 255.4279 104.6387 15.27582859159166
STARLINK-30039          
1 57468U 23107M   26160.35617718  .00001618  00000+0  68334-4 0  9999
2 57468  43.0052 178.6485 0001305 264.8014  95.2689 15.27572959159162
STARLINK-30171          
1 57469U 23107N   26158.37222823  .00003880  00000+0  15036-3 0  9991
2 57469  43.0011 192.9657 0001714 259.3325 100.7334 15.27594610158825
STARLINK-30186          
1 57470U 23107P   26160.58337963  .00119423  00000+0  34399-2 0  9994
2 57470  42.9990 184.9481 0001053 285.7113 282.0271 15.34597221  5803
STARLINK-30204          
1 57472U 23107R   26160.33821882  .00009663  00000+0  36050-3 0  9998
2 57472  42.9939 178.5086 0000868 286.9629  73.1128 15.27551481159165
