OBJECT_NAME,OBJECT_ID,EPOCH,MEAN_MOTION,ECCENTRICITY,INCLINATION,RA_OF_ASC_NODE,ARG_OF_PERICENTER,MEAN_ANOMALY,EPHEMERIS_TYPE,CLASSIFICATION_TYPE,NORAD_CAT_ID,ELEMENT_SET_NO,REV_AT_EPOCH,BSTAR,MEAN_MOTION_DOT,MEAN_MOTION_DDOT
STARLINK-30224,2023-102N,2026-06-09T12:28:08.357088,15.27577658,.0003942,43.0455,90.0070,269.9082,90.1319,0,U,57416,999,16028,.76370846E-4,.1838E-4,0
STARLINK-30043,2023-102P,2026-06-09T12:30:00.736704,15.27575139,.00004642,43.0062,90.0173,308.1336,51.9474,0,U,57417,999,16028,.10585053E-4,.29E-6,0
STARLINK-30221,2023-102Q,2026-06-09T13:12:59.692896,15.27577959,.00006481,43.0034,97.0714,244.3653,115.7132,0,U,57418,999,16020,.32030897E-4,.62E-5,0
STARLINK-30188,2023-105C,2026-06-09T03:04:22.409760,15.27580211,.0001686,43.0003,107.0859,272.9238,87.1421,0,U,57432,999,15949,.66633117E-4,.1572E-4,0
STARLINK-30105,2023-105D,2026-06-09T11:31:24.305088,15.27575799,.00015438,43.0041,232.4523,283.1417,76.9262,0,U,57433,999,16236,.19606534E-4,.277E-5,0
STARLINK-30102,2023-105E,2026-06-09T02:46:34.440960,15.27574666,.00020579,43.0080,103.5808,280.6137,79.4483,0,U,57434,999,15951,.25322078E-4,.434E-5,0
STARLINK-30158,2023-105J,2026-06-09T02:50:16.198656,15.27581170,.00013864,43.0021,103.5966,256.0579,104.0119,0,U,57438,999,15956,.38934226E-4,.809E-5,0
STARLINK-30160,2023-105M,2026-06-07T14:32:09.627936,15.27566289,.0000633,43.0029,118.8370,246.5113,113.5672,0,U,57441,999,15909,-.43411796E-4,-.1456E-4,0
STARLINK-30146,2023-105N,2026-06-09T02:55:49.685376,15.27576451,.00014929,43.0067,103.6256,270.7122,89.3559,0,U,57442,999,15962,.15470065E-4,.163E-5,0
STARLINK-30197,2023-105P,2026-06-08T13:53:02.166720,15.27554334,.00047256,42.9849,106.4226,99.1707,260.9679,0,U,57443,999,15948,-.10338824E-4,-.548E-5,0
STARLINK-30181,2023-105Q,2026-06-07T14:27:19.585728,15.27569471,.00007881,43.0027,115.4005,204.8042,155.2772,0,U,57444,999,15935,.1494111E-4,.149E-5,0
STARLINK-30215,2023-105R,2026-06-09T12:31:52.050144,15.27577143,.00011533,43.0035,101.4642,272.6882,87.3837,0,U,57445,999,15946,.29786686E-4,.558E-5,0
STARLINK-30162,2023-105S,2026-06-09T12:04:11.648640,15.27576126,.00010952,43.0053,90.2842,276.3057,83.7670,0,U,57446,999,15975,.9853886E-5,.9E-7,0
STARLINK-30178,2023-105T,2026-06-09T03:01:22.424736,15.27581049,.00011202,43.0046,103.6522,271.3071,88.7652,0,U,57447,999,15956,.63269451E-4,.1479E-4,0
STARLINK-30196,2023-105U,2026-06-09T13:20:53.421504,15.27583954,.00023975,43.0404,104.2607,261.7232,98.3349,0,U,57448,999,15943,.11933082E-4,.65E-6,0
STARLINK-30225,2023-105V,2026-06-08T13:54:05.943744,15.27579582,.00019643,43.0052,109.8297,267.4455,92.6172,0,U,57449,999,15950,-.3137718E-5,-.349E-5,0
STARLINK-30217,2023-105W,2026-06-09T12:07:54.678144,15.27576192,.00006508,43.0021,90.3487,271.9640,88.1138,0,U,57450,999,15975,.22911943E-4,.369E-5,0
STARLINK-30216,2023-105X,2026-06-09T03:27:04.357152,15.27579399,.00007485,43.0016,102.9382,269.0234,91.0532,0,U,57451,999,15941,.42704611E-4,.913E-5,0
STARLINK-30165,2023-107A,2026-06-09T08:29:11.945472,15.27571948,.00016254,43.0034,178.6371,264.2277,95.8390,0,U,57457,999,15915,.44005117E-4,.949E-5,0
STARLINK-30140,2023-107B,2026-06-09T09:29:20.073408,15.27588003,.00027452,43.0021,181.4908,269.6981,90.3556,0,U,57458,999,15913,.9902353E-4,.2464E-4,0
STARLINK-30077,2023-107D,2026-06-08T18:54:52.820640,15.27577757,.00014947,43.0039,181.2748,277.8297,82.2385,0,U,57460,999,15908,.18434948E-4,.245E-5,0
STARLINK-30229,2023-107E,2026-06-08T19:04:46.574400,15.27575330,.00011997,43.0022,188.9972,273.0463,87.0251,0,U,57461,999,15899,.33227222E-4,.652E-5,0
STARLINK-30088,2023-107F,2026-06-09T08:36:36.333504,15.27585255,.00012584,43.0030,178.6691,283.0955,76.9756,0,U,57462,999,15916,.71781841E-4,.1714E-4,0
STARLINK-30091,2023-107G,2026-06-09T14:00:04.000032,15.81976866,.00019147,42.9994,171.0227,279.9073,347.3010,0,U,57463,999,591,.70672652E-2,.167472E-1,0
STARLINK-30116,2023-107J,2026-06-09T08:21:47.533248,15.27575854,.00015594,42.9985,178.5846,293.4669,66.6019,0,U,57465,999,15916,.17909629E-4,.231E-5,0
STARLINK-30092,2023-107L,2026-06-09T08:27:21.871008,15.27582859,.0001676,43.0045,178.6262,255.4279,104.6387,0,U,57467,999,15916,.49498125E-4,.11E-4,0
STARLINK-30039,2023-107M,2026-06-09T08:32:53.708352,15.27572959,.0001305,43.0052,178.6485,264.8014,95.2689,0,U,57468,999,15916,.68333531E-4,.1618E-4,0
STARLINK-30171,2023-107N,2026-06-07T08:56:00.519072,15.27594610,.00017145,43.0011,192.9657,259.3325,100.7334,0,U,57469,999,15882,.15036431E-3,.388E-4,0
STARLINK-30186,2023-107P,2026-06-09T14:00:04.000032,15.34597221,.00010539,42.9990,184.9481,285.7113,282.0271,0,U,57470,999,580,.3439906E-2,.119423E-2,0
STARLINK-30204,2023-107R,2026-06-09T08:07:02.106048,15.27551481,.00008683,42.9939,178.5086,286.9629,73.1128,0,U,57472,999,15916,.36050187E-3,.9663E-4,0
